start=new Date('2023-05-25T00:00:00.000Z').valueOf();
sats=[{"ELEMENT_SET_NO":"999","CLASSIFICATION_TYPE":"U","PERIAPSIS":"546.391","ECCENTRICITY":"0.00012090","TLE_LINE2":"2 47843  53.0520 156.8016 0001209  98.4048 261.7078 15.06395065122764","GP_ID":"232448578","SEMIMAJOR_AXIS":"6925.364","APOAPSIS":"548.066","MEAN_ANOMALY":"261.7078","OBJECT_TYPE":"PAYLOAD","TIME_SYSTEM":"UTC","DECAY_DATE":null,"EPHEMERIS_TYPE":"0","RA_OF_ASC_NODE":"156.8016","FILE":"3916549","NORAD_CAT_ID":"47843","ARG_OF_PERICENTER":"98.4048","MEAN_MOTION":"15.06395065","REF_FRAME":"TEME","OBJECT_NAME":"STARLINK-2435","RCS_SIZE":"LARGE","CENTER_NAME":"EARTH","OBJECT_ID":"2021-018BJ","MEAN_MOTION_DDOT":"0.0000000000000","BSTAR":"0.00029393000000","MEAN_ELEMENT_THEORY":"SGP4","TLE_LINE1":"1 47843U 21018BJ  23144.41577097  .00004099  00000-0  29393-3 0  9993","EPOCH":"2023-05-24T09:58:42.611808","REV_AT_EPOCH":"12276","PERIOD":"95.592","LAUNCH_DATE":"2021-03-11","MEAN_MOTION_DOT":"0.00004099","INCLINATION":"53.0520","SITE":"AFETR","COUNTRY_CODE":"US"},{"TLE_LINE1":"1 47844U 21018BK  23144.28169509  .00001621  00000-0  12769-3 0  9991","EPOCH":"2023-05-24T06:45:38.455776","MEAN_ELEMENT_THEORY":"SGP4","BSTAR":"0.00012769000000","PERIOD":"95.593","MEAN_MOTION_DOT":"0.00001621","LAUNCH_DATE":"2021-03-11","INCLINATION":"53.0538","REV_AT_EPOCH":"12279","SITE":"AFETR","COUNTRY_CODE":"US","MEAN_MOTION":"15.06387414","OBJECT_NAME":"STARLINK-2446","REF_FRAME":"TEME","FILE":"3916549","NORAD_CAT_ID":"47844","ARG_OF_PERICENTER":"96.3554","CENTER_NAME":"EARTH","MEAN_MOTION_DDOT":"0.0000000000000","OBJECT_ID":"2021-018BK","RCS_SIZE":"LARGE","OBJECT_TYPE":"PAYLOAD","MEAN_ANOMALY":"263.7545","TIME_SYSTEM":"UTC","DECAY_DATE":null,"RA_OF_ASC_NODE":"152.4059","EPHEMERIS_TYPE":"0","CLASSIFICATION_TYPE":"U","PERIAPSIS":"546.581","ELEMENT_SET_NO":"999","ECCENTRICITY":"0.00009690","TLE_LINE2":"2 47844  53.0538 152.4059 0000969  96.3554 263.7545 15.06387414122797","GP_ID":"232448829","SEMIMAJOR_AXIS":"6925.387","APOAPSIS":"547.923"},{"ARG_OF_PERICENTER":"88.8054","NORAD_CAT_ID":"47845","FILE":"3916549","OBJECT_NAME":"STARLINK-2453","REF_FRAME":"TEME","MEAN_MOTION":"15.06392959","RCS_SIZE":"LARGE","OBJECT_ID":"2021-018BL","MEAN_MOTION_DDOT":"0.0000000000000","CENTER_NAME":"EARTH","REV_AT_EPOCH":"12282","LAUNCH_DATE":"2021-03-11","MEAN_MOTION_DOT":"0.00001644","INCLINATION":"53.0546","PERIOD":"95.593","BSTAR":"0.00012924000000","MEAN_ELEMENT_THEORY":"SGP4","EPOCH":"2023-05-24T10:23:15.230688","TLE_LINE1":"1 47845U 21018BL  23144.43281517  .00001644  00000-0  12924-3 0  9991","COUNTRY_CODE":"US","SITE":"AFETR","GP_ID":"232448085","TLE_LINE2":"2 47845  53.0546 151.7302 0001243  88.8054 271.3078 15.06392959122827","ECCENTRICITY":"0.00012430","ELEMENT_SET_NO":"999","PERIAPSIS":"546.374","CLASSIFICATION_TYPE":"U","APOAPSIS":"548.096","SEMIMAJOR_AXIS":"6925.370","DECAY_DATE":null,"TIME_SYSTEM":"UTC","OBJECT_TYPE":"PAYLOAD","MEAN_ANOMALY":"271.3078","EPHEMERIS_TYPE":"0","RA_OF_ASC_NODE":"151.7302"},{"SEMIMAJOR_AXIS":"6925.358","APOAPSIS":"548.063","ECCENTRICITY":"0.00012140","TLE_LINE2":"2 47846  53.0534 151.7406 0001214  88.0234 272.0894 15.06397029122872","GP_ID":"232448333","CLASSIFICATION_TYPE":"U","PERIAPSIS":"546.382","ELEMENT_SET_NO":"999","RA_OF_ASC_NODE":"151.7406","EPHEMERIS_TYPE":"0","DECAY_DATE":null,"TIME_SYSTEM":"UTC","MEAN_ANOMALY":"272.0894","OBJECT_TYPE":"PAYLOAD","CENTER_NAME":"EARTH","OBJECT_ID":"2021-018BM","MEAN_MOTION_DDOT":"0.0000000000000","RCS_SIZE":"LARGE","MEAN_MOTION":"15.06397029","REF_FRAME":"TEME","OBJECT_NAME":"STARLINK-2456","FILE":"3916549","NORAD_CAT_ID":"47846","ARG_OF_PERICENTER":"88.0234","COUNTRY_CODE":"US","SITE":"AFETR","PERIOD":"95.592","MEAN_MOTION_DOT":"0.00002923","LAUNCH_DATE":"2021-03-11","INCLINATION":"53.0534","REV_AT_EPOCH":"12287","TLE_LINE1":"1 47846U 21018BM  23144.42818291  .00002923  00000-0  21503-3 0  9990","EPOCH":"2023-05-24T10:16:35.003424","BSTAR":"0.00021503000000","MEAN_ELEMENT_THEORY":"SGP4"},{"CLASSIFICATION_TYPE":"U","PERIAPSIS":"546.553","ELEMENT_SET_NO":"999","ECCENTRICITY":"0.00010060","TLE_LINE2":"2 47860  53.0525 182.0253 0001006  93.5229 266.5875 15.06388049122160","GP_ID":"232449080","SEMIMAJOR_AXIS":"6925.385","APOAPSIS":"547.947","OBJECT_TYPE":"PAYLOAD","MEAN_ANOMALY":"266.5875","DECAY_DATE":null,"TIME_SYSTEM":"UTC","RA_OF_ASC_NODE":"182.0253","EPHEMERIS_TYPE":"0","MEAN_MOTION":"15.06388049","OBJECT_NAME":"STARLINK-2258","REF_FRAME":"TEME","FILE":"3916549","ARG_OF_PERICENTER":"93.5229","NORAD_CAT_ID":"47860","CENTER_NAME":"EARTH","MEAN_MOTION_DDOT":"0.0000000000000","OBJECT_ID":"2021-021A","RCS_SIZE":"LARGE","TLE_LINE1":"1 47860U 21021A   23144.36739628  .00003236  00000-0  23612-3 0  9990","EPOCH":"2023-05-24T08:49:03.038592","BSTAR":"0.00023612000000","MEAN_ELEMENT_THEORY":"SGP4","PERIOD":"95.593","INCLINATION":"53.0525","LAUNCH_DATE":"2021-03-14","MEAN_MOTION_DOT":"0.00003236","REV_AT_EPOCH":"12216","SITE":"AFETR","COUNTRY_CODE":"US"},{"RCS_SIZE":"LARGE","CENTER_NAME":"EARTH","OBJECT_ID":"2021-021B","MEAN_MOTION_DDOT":"0.0000000000000","FILE":"3916549","NORAD_CAT_ID":"47861","ARG_OF_PERICENTER":"97.8860","MEAN_MOTION":"15.06392888","OBJECT_NAME":"STARLINK-2280","REF_FRAME":"TEME","COUNTRY_CODE":"US","SITE":"AFETR","REV_AT_EPOCH":"12249","PERIOD":"95.593","LAUNCH_DATE":"2021-03-14","INCLINATION":"53.0523","MEAN_MOTION_DOT":"0.00004622","MEAN_ELEMENT_THEORY":"SGP4","BSTAR":"0.00032902000000","TLE_LINE1":"1 47861U 21021B   23144.45170994  .00004622  00000-0  32902-3 0  9998","EPOCH":"2023-05-24T10:50:27.738816","SEMIMAJOR_AXIS":"6925.370","APOAPSIS":"547.912","ECCENTRICITY":"0.00009770","GP_ID":"232449331","TLE_LINE2":"2 47861  53.0523 166.6466 0000977  97.8860 262.2239 15.06392888122496","ELEMENT_SET_NO":"999","CLASSIFICATION_TYPE":"U","PERIAPSIS":"546.559","EPHEMERIS_TYPE":"0","RA_OF_ASC_NODE":"166.6466","DECAY_DATE":null,"TIME_SYSTEM":"UTC","OBJECT_TYPE":"PAYLOAD","MEAN_ANOMALY":"262.2239"},{"SITE":"AFETR","COUNTRY_CODE":"US","TLE_LINE1":"1 47862U 21021C   23144.43189842  .00003180  00000-0  23232-3 0  9993","EPOCH":"2023-05-24T10:21:56.023488","BSTAR":"0.00023232000000","MEAN_ELEMENT_THEORY":"SGP4","PERIOD":"95.593","MEAN_MOTION_DOT":"0.00003180","LAUNCH_DATE":"2021-03-14","INCLINATION":"53.0526","REV_AT_EPOCH":"12207","CENTER_NAME":"EARTH","OBJECT_ID":"2021-021C","MEAN_MOTION_DDOT":"0.0000000000000","RCS_SIZE":"LARGE","MEAN_MOTION":"15.06391304","OBJECT_NAME":"STARLINK-2291","REF_FRAME":"TEME","FILE":"3916291","ARG_OF_PERICENTER":"92.5515","NORAD_CAT_ID":"47862","RA_OF_ASC_NODE":"161.7278","EPHEMERIS_TYPE":"0","OBJECT_TYPE":"PAYLOAD","MEAN_ANOMALY":"267.5591","DECAY_DATE":null,"TIME_SYSTEM":"UTC","SEMIMAJOR_AXIS":"6925.375","APOAPSIS":"547.951","CLASSIFICATION_TYPE":"U","PERIAPSIS":"546.530","ELEMENT_SET_NO":"999","ECCENTRICITY":"0.00010260","GP_ID":"232421797","TLE_LINE2":"2 47862  53.0526 161.7278 0001026  92.5515 267.5591 15.06391304122077"},{"ELEMENT_SET_NO":"999","CLASSIFICATION_TYPE":"U","PERIAPSIS":"546.492","ECCENTRICITY":"0.00010960","TLE_LINE2":"2 47863  53.0530 172.2198 0001096 101.1655 258.9457 15.06387805122403","GP_ID":"232447834","SEMIMAJOR_AXIS":"6925.386","APOAPSIS":"548.010","OBJECT_TYPE":"PAYLOAD","MEAN_ANOMALY":"258.9457","DECAY_DATE":null,"TIME_SYSTEM":"UTC","EPHEMERIS_TYPE":"0","RA_OF_ASC_NODE":"172.2198","FILE":"3916549","NORAD_CAT_ID":"47863","ARG_OF_PERICENTER":"101.1655","MEAN_MOTION":"15.06387805","REF_FRAME":"TEME","OBJECT_NAME":"STARLINK-2293","RCS_SIZE":"LARGE","CENTER_NAME":"EARTH","MEAN_MOTION_DDOT":"0.0000000000000","OBJECT_ID":"2021-021D","MEAN_ELEMENT_THEORY":"SGP4","BSTAR":"0.00015284000000","TLE_LINE1":"1 47863U 21021D   23144.32408546  .00001995  00000-0  15284-3 0  9997","EPOCH":"2023-05-24T07:46:40.983744","REV_AT_EPOCH":"12240","PERIOD":"95.593","LAUNCH_DATE":"2021-03-14","MEAN_MOTION_DOT":"0.00001995","INCLINATION":"53.0530","SITE":"AFETR","COUNTRY_CODE":"US"},{"EPHEMERIS_TYPE":"0","RA_OF_ASC_NODE":"161.7609","MEAN_ANOMALY":"269.5695","OBJECT_TYPE":"PAYLOAD","TIME_SYSTEM":"UTC","DECAY_DATE":null,"APOAPSIS":"547.958","SEMIMAJOR_AXIS":"6925.356","ELEMENT_SET_NO":"999","PERIAPSIS":"546.484","CLASSIFICATION_TYPE":"U","GP_ID":"232448580","TLE_LINE2":"2 47864  53.0521 161.7609 0001064  90.5416 269.5695 15.06397647122536","ECCENTRICITY":"0.00010640","SITE":"AFETR","COUNTRY_CODE":"US","BSTAR":"0.00034275000000","MEAN_ELEMENT_THEORY":"SGP4","EPOCH":"2023-05-24T10:27:14.834304","TLE_LINE1":"1 47864U 21021E   23144.43558836  .00004827  00000-0  34275-3 0  9996","REV_AT_EPOCH":"12253","INCLINATION":"53.0521","LAUNCH_DATE":"2021-03-14","MEAN_MOTION_DOT":"0.00004827","PERIOD":"95.592","RCS_SIZE":"LARGE","OBJECT_ID":"2021-021E","MEAN_MOTION_DDOT":"0.0000000000000","CENTER_NAME":"EARTH","ARG_OF_PERICENTER":"90.5416","NORAD_CAT_ID":"47864","FILE":"3916549","OBJECT_NAME":"STARLINK-2304","REF_FRAME":"TEME","MEAN_MOTION":"15.06397647"},{"MEAN_MOTION":"15.06387556","REF_FRAME":"TEME","OBJECT_NAME":"STARLINK-2310","FILE":"3916549","ARG_OF_PERICENTER":"95.3835","NORAD_CAT_ID":"47865","CENTER_NAME":"EARTH","OBJECT_ID":"2021-021F","MEAN_MOTION_DDOT":"0.0000000000000","RCS_SIZE":"LARGE","PERIOD":"95.593","LAUNCH_DATE":"2021-03-14","INCLINATION":"53.0525","MEAN_MOTION_DOT":"0.00001373","REV_AT_EPOCH":"12251","TLE_LINE1":"1 47865U 21021F   23144.36368219  .00001373  00000-0  11108-3 0  9996","EPOCH":"2023-05-24T08:43:42.141216","MEAN_ELEMENT_THEORY":"SGP4","BSTAR":"0.00011108000000","COUNTRY_CODE":"US","SITE":"AFETR","ECCENTRICITY":"0.00010600","TLE_LINE2":"2 47865  53.0525 172.0257 0001060  95.3835 264.7275 15.06387556122516","GP_ID":"232448831","CLASSIFICATION_TYPE":"U","PERIAPSIS":"546.518","ELEMENT_SET_NO":"999","SEMIMAJOR_AXIS":"6925.387","APOAPSIS":"547.986","TIME_SYSTEM":"UTC","DECAY_DATE":null,"MEAN_ANOMALY":"264.7275","OBJECT_TYPE":"PAYLOAD","RA_OF_ASC_NODE":"172.0257","EPHEMERIS_TYPE":"0"}];
